{"type":"FeatureCollection","features":[{"type":"Feature","geometry":{"type":"MultiPolygon","coordinates":[[[[-73.61,-7.2],[-72.66,-7.62],[-70.37,-8.14],[-68.73,-9.0],[-66.63,-9.94],[-67.05,-10.28],[-67.41,-10.37],[-67.71,-10.71],[-67.86,-10.64],[-68.06,-10.67],[-68.24,-10.96],[-68.54,-11.11],[-68.72,-11.14],[-68.79,-10.99],[-69.39,-10.93],[-69.94,-10.92],[-70.31,-11.07],[-70.52,-10.94],[-70.62,-11.0],[-70.62,-9.82],[-70.53,-9.74],[-70.6,-9.56],[-70.49,-9.43],[-70.6,-9.44],[-71.21,-9.97],[-72.18,-10.0],[-72.15,-9.8],[-72.27,-9.75],[-72.25,-9.61],[-72.35,-9.49],[-73.22,-9.41],[-72.96,-9.15],[-72.94,-8.99],[-73.14,-8.69],[-73.29,-8.62],[-73.28,-8.47],[-73.54,-8.35],[-73.63,-8.02],[-73.77,-7.91],[-73.68,-7.78],[-73.99,-7.55],[-73.92,-7.46],[-73.96,-7.34],[-73.87,-7.38],[-73.7,-7.3],[-73.8,-7.11],[-73.61,-7.2]]]]},"properties":{"name":"Acre","sigla":"AC"}},{"type":"Feature","geometry":{"type":"MultiPolygon","coordinates":[[[[-35.47,-8.82],[-35.15,-8.92],[-35.35,-9.26],[-36.28,-10.28],[-36.39,-10.5],[-36.43,-10.42],[-36.56,-10.42],[-36.62,-10.26],[-36.91,-10.14],[-36.97,-9.99],[-37.78,-9.64],[-38.2,-9.42],[-38.24,-9.33],[-37.98,-9.15],[-37.78,-8.86],[-37.69,-9.0],[-37.49,-8.96],[-37.23,-9.24],[-37.08,-9.25],[-36.94,-9.38],[-36.87,-9.27],[-36.59,-9.34],[-36.44,-9.21],[-36.22,-9.17],[-36.27,-9.1],[-36.06,-8.91],[-35.79,-8.85],[-35.75,-8.92],[-35.47,-8.82]],[[-35.29,-9.15],[-35.29,-9.15]]]]},"properties":{"name":"Alagoas","sigla":"AL"}},{"type":"Feature","geometry":{"type":"MultiPolygon","coordinates":[[[[-67.33,2.03],[-67.29,1.89],[-67.11,1.77],[-67.09,1.17],[-66.86,1.23],[-66.32,0.76],[-66.15,0.74],[-65.74,1.0],[-65.58,1.01],[-65.49,0.88],[-65.59,0.72],[-65.54,0.65],[-65.42,0.71],[-65.33,0.93],[-65.18,0.92],[-65.12,1.15],[-65.02,1.11],[-64.81,1.31],[-64.72,1.24],[-64.4,1.53],[-64.34,1.36],[-64.09,1.62],[-64.0,1.98],[-63.66,2.02],[-63.62,2.11],[-63.42,2.13],[-63.38,2.21],[-63.16,2.18],[-63.07,2.04],[-62.71,1.95],[-62.72,1.71],[-62.81,1.6],[-62.64,1.44],[-62.44,0.97],[-62.54,0.68],[-62.52,0.44],[-62.19,-0.34],[-62.31,-0.51],[-62.29,-0.65],[-62.41,-0.73],[-62.49,-0.68],[-62.51,-0.76],[-62.02,-1.14],[-61.9,-1.4],[-61.63,-1.43],[-61.47,-1.58],[-61.62,-1.39],[-61.54,-1.06],[-61.59,-0.94],[-61.46,-0.66],[-61.22,-0.5],[-60.93,-0.55],[-60.67,-0.89],[-60.53,-0.88],[-60.48,-0.77],[-60.31,-0.72],[-60.4,-0.51],[-60.04,0.26],[-58.9,0.26],[-58.87,-0.34],[-58.73,-0.43],[-58.72,-0.65],[-58.43,-0.89],[-58.43,-1.03],[-58.32,-1.14],[-58.16,-1.23],[-58.03,-1.1],[-57.95,-1.41],[-57.39,-1.72],[-57.16,-1.72],[-57.03,-1.92],[-56.73,-2.02],[-56.77,-2.17],[-56.68,-2.21],[-56.53,-2.14],[-56.41,-2.18],[-56.1,-2.03],[-56.47,-2.42],[-56.4,-2.46],[-58.26,-6.47],[-58.48,-6.7],[-58.43,-6.91],[-58.2,-7.14],[-58.14,-7.35],[-58.2,-7.62],[-58.38,-7.84],[-58.29,-8.14],[-58.44,-8.7],[-58.33,-8.73],[-58.44,-8.8],[-61.58,-8.8],[-61.73,-8.69],[-61.84,-8.73],[-61.87,-8.86],[-61.98,-8.88],[-62.12,-8.8],[-62.19,-8.59],[-62.34,-8.61],[-62.36,-8.4],[-62.53,-8.38],[-62.83,-7.99],[-63.62,-7.97],[-63.77,-8.32],[-63.94,-8.33],[-63.92,-8.57],[-64.13,-8.72],[-64.15,-8.96],[-64.84,-8.99],[-64.92,-9.04],[-64.93,-9.25],[-65.09,-9.43],[-65.18,-9.43],[-65.25,-9.26],[-65.45,-9.32],[-65.43,-9.47],[-65.6,-9.41],[-65.79,-9.59],[-66.0,-9.4],[-66.41,-9.41],[-66.39,-9.5],[-66.5,-9.63],[-66.81,-9.81],[-68.73,-9.0],[-70.37,-8.14],[-72.66,-7.62],[-73.8,-7.12],[-73.64,-6.75],[-73.14,-6.51],[-73.11,-6.4],[-73.24,-6.03],[-72.96,-5.66],[-72.86,-5.14],[-72.64,-5.06],[-71.89,-4.52],[-71.62,-4.47],[-71.6,-4.53],[-71.48,-4.44],[-71.31,-4.46],[-71.27,-4.38],[-70.94,-4.38],[-70.77,-4.16],[-70.33,-4.15],[-70.2,-4.37],[-70.11,-4.26],[-70.03,-4.36],[-69.96,-4.3],[-69.39,-1.13],[-69.63,-0.75],[-69.56,-0.64],[-69.61,-0.51],[-70.06,-0.19],[-70.04,0.56],[-69.81,0.57],[-69.69,0.67],[-69.61,0.63],[-69.48,0.74],[-69.36,0.61],[-69.11,0.65],[-69.19,0.73],[-69.16,0.95],[-69.32,1.1],[-69.84,1.08],[-69.84,1.72],[-69.56,1.79],[-69.39,1.73],[-68.16,1.73],[-68.27,1.83],[-68.17,1.99],[-67.93,1.83],[-67.77,2.04],[-67.62,2.02],[-67.41,2.25],[-67.34,2.21],[-67.33,2.03]]]]},"properties":{"name":"Amazonas","sigla":"AM"}},{"type":"Feature","geometry":{"type":"MultiPolygon","coordinates":[[[[-51.18,4.01],[-51.07,3.86],[-51.09,3.39],[-51.01,3.03],[-50.7,2.14],[-50.43,2.19],[-50.24,1.8],[-49.91,1.7],[-49.89,1.19],[-50.09,0.7],[-50.35,0.67],[-50.67,0.18],[-51.22,-0.12],[-51.68,-0.79],[-51.7,-1.07],[-51.81,-1.16],[-51.98,-1.12],[-52.07,-1.24],[-52.12,-1.15],[-52.43,-1.05],[-52.4,-0.88],[-52.54,-0.85],[-52.53,-0.57],[-52.64,-0.58],[-52.68,-0.31],[-52.95,-0.11],[-53.17,0.38],[-53.1,0.68],[-53.41,0.93],[-53.42,1.23],[-53.54,1.21],[-53.54,1.34],[-53.64,1.33],[-53.64,1.41],[-53.85,1.39],[-54.01,1.52],[-54.09,1.49],[-54.14,1.64],[-54.3,1.74],[-54.74,1.78],[-54.81,2.04],[-54.76,2.2],[-54.88,2.43],[-54.68,2.45],[-54.69,2.36],[-54.44,2.21],[-53.97,2.23],[-53.74,2.38],[-53.75,2.31],[-53.55,2.26],[-53.32,2.35],[-53.23,2.28],[-53.27,2.17],[-53.1,2.22],[-52.96,2.16],[-52.55,2.52],[-52.35,3.14],[-51.97,3.73],[-51.64,4.05],[-51.54,4.43],[-51.27,4.22],[-51.18,4.01]]]]},"properties":{"name":"Amapá","sigla":"AP"}},{"type":"Feature","geometry":{"type":"MultiPolygon","coordinates":[[[[-39.29,-8.56],[-39.23,-8.71],[-38.8,-8.79],[-38.64,-8.99],[-38.55,-8.82],[-38.47,-8.87],[-38.48,-9.0],[-38.32,-8.99],[-38.2,-9.42],[-38.0,-9.5],[-38.0,-9.92],[-37.83,-10.0],[-37.74,-10.31],[-37.86,-10.43],[-37.81,-10.69],[-38.0,-10.76],[-38.21,-10.71],[-38.23,-10.91],[-37.97,-11.2],[-37.98,-11.39],[-37.8,-11.52],[-37.52,-11.55],[-37.34,-11.45],[-38.06,-12.65],[-38.36,-12.96],[-38.53,-13.01],[-38.62,-12.93],[-38.97,-13.28],[-38.89,-13.66],[-39.0,-13.74],[-38.93,-13.96],[-39.06,-14.75],[-38.86,-15.87],[-39.02,-16.25],[-39.21,-17.14],[-39.13,-17.69],[-39.57,-18.09],[-39.67,-18.35],[-40.22,-17.98],[-40.22,-17.73],[-40.62,-17.41],[-40.55,-16.98],[-40.49,-16.88],[-40.27,-16.89],[-40.25,-16.82],[-40.34,-16.79],[-40.29,-16.6],[-40.16,-16.58],[-39.86,-16.12],[-39.92,-15.99],[-40.17,-15.91],[-40.23,-15.8],[-40.4,-15.82],[-40.46,-15.75],[-40.56,-15.8],[-40.81,-15.65],[-40.96,-15.65],[-41.13,-15.77],[-41.33,-15.74],[-41.36,-15.49],[-41.8,-15.1],[-42.09,-15.19],[-42.17,-15.09],[-42.4,-15.08],[-42.94,-14.71],[-43.18,-14.65],[-43.53,-14.81],[-43.88,-14.66],[-43.78,-14.34],[-44.22,-14.23],[-44.59,-14.35],[-45.08,-14.75],[-45.2,-14.74],[-45.45,-14.95],[-45.57,-14.94],[-45.72,-15.11],[-46.1,-15.24],[-45.97,-15.01],[-46.05,-14.83],[-45.98,-14.62],[-46.02,-14.42],[-45.91,-14.35],[-46.27,-14.1],[-46.21,-14.02],[-46.26,-13.69],[-46.16,-13.59],[-46.24,-13.55],[-46.24,-13.43],[-46.04,-13.27],[-46.28,-13.35],[-46.33,-13.25],[-46.28,-13.03],[-46.11,-12.92],[-46.3,-12.95],[-46.28,-12.58],[-46.15,-12.48],[-46.25,-12.49],[-46.38,-12.29],[-46.4,-12.03],[-46.17,-11.91],[-46.37,-11.88],[-46.31,-11.63],[-46.08,-11.64],[-46.48,-11.52],[-46.62,-11.29],[-46.28,-10.91],[-46.21,-10.65],[-45.83,-10.44],[-45.7,-10.27],[-45.72,-10.15],[-45.64,-10.12],[-45.43,-10.36],[-45.44,-10.62],[-45.25,-10.82],[-44.93,-10.93],[-44.59,-10.63],[-44.32,-10.55],[-44.13,-10.64],[-44.02,-10.4],[-43.91,-10.42],[-43.77,-10.08],[-43.66,-10.0],[-43.71,-9.91],[-43.65,-9.84],[-43.78,-9.76],[-43.85,-9.55],[-43.5,-9.27],[-43.28,-9.42],[-42.98,-9.4],[-42.95,-9.52],[-42.77,-9.62],[-42.23,-9.28],[-41.84,-9.24],[-41.73,-9.02],[-41.54,-8.96],[-41.38,-8.71],[-41.11,-8.7],[-41.03,-8.84],[-40.9,-8.86],[-40.82,-9.08],[-40.67,-9.16],[-40.78,-9.45],[-40.62,-9.48],[-40.36,-9.38],[-40.25,-9.06],[-40.13,-9.11],[-39.96,-9.05],[-39.89,-8.83],[-39.67,-8.79],[-39.69,-8.66],[-39.42,-8.54],[-39.29,-8.56]],[[-39.58,-18.09],[-39.58,-18.09]]]]},"properties":{"name":"Bahia","sigla":"BA"}},{"type":"Feature","geometry":{"type":"MultiPolygon","coordinates":[[[[-40.02,-2.84],[-39.25,-3.22],[-38.64,-3.69],[-38.47,-3.71],[-38.07,-4.2],[-37.77,-4.4],[-37.63,-4.6],[-37.31,-4.71],[-37.25,-4.83],[-37.64,-4.93],[-37.9,-5.5],[-38.08,-5.66],[-38.05,-5.75],[-38.16,-5.95],[-38.53,-6.19],[-38.6,-6.39],[-38.52,-6.41],[-38.67,-6.7],[-38.61,-6.78],[-38.77,-6.91],[-38.66,-7.08],[-38.69,-7.19],[-38.53,-7.29],[-38.66,-7.57],[-38.98,-7.85],[-39.09,-7.86],[-39.13,-7.72],[-39.31,-7.67],[-39.31,-7.55],[-39.66,-7.31],[-40.25,-7.43],[-40.32,-7.37],[-40.55,-7.39],[-40.37,-6.8],[-40.71,-6.68],[-40.79,-6.52],[-40.78,-6.32],[-40.91,-6.05],[-40.92,-5.18],[-41.25,-4.87],[-41.17,-4.67],[-41.24,-4.57],[-41.09,-4.17],[-41.11,-4.04],[-41.25,-4.04],[-41.22,-3.94],[-41.3,-3.83],[-41.24,-3.71],[-41.34,-3.68],[-41.37,-3.56],[-41.3,-3.49],[-41.42,-3.37],[-41.26,-3.09],[-41.32,-2.92],[-40.5,-2.78],[-40.02,-2.84]]],[[[-40.02,-2.83],[-40.02,-2.83]]]]},"properties":{"name":"Ceará","sigla":"CE"}},{"type":"Feature","geometry":{"type":"MultiPolygon","coordinates":[[[[-40.72,-20.84],[-40.96,-21.3],[-41.08,-21.22],[-41.44,-21.22],[-41.7,-21.13],[-41.71,-20.87],[-41.88,-20.77],[-41.8,-20.54],[-41.86,-20.37],[-41.76,-20.21],[-41.38,-20.19],[-41.31,-19.95],[-41.18,-19.89],[-41.17,-19.67],[-41.04,-19.57],[-41.05,-19.49],[-40.94,-19.46],[-40.92,-19.2],[-41.06,-19.06],[-41.02,-18.97],[-41.24,-18.86],[-41.23,-18.8],[-40.92,-18.82],[-40.94,-18.69],[-41.05,-18.63],[-41.02,-18.46],[-41.18,-18.44],[-41.16,-18.31],[-40.91,-18.11],[-40.77,-18.16],[-40.9,-17.98],[-40.65,-18.01],[-40.52,-17.89],[-40.22,-17.98],[-39.67,-18.32],[-39.75,-18.7],[-39.69,-19.34],[-39.81,-19.65],[-39.98,-19.73],[-40.13,-19.93],[-40.42,-20.64],[-40.72,-20.84]],[[-40.53,-20.66],[-40.53,-20.66]],[[-40.54,-20.68],[-40.54,-20.68]]],[[[-40.48,-20.66],[-40.48,-20.66]]],[[[-40.72,-20.85],[-40.72,-20.85]]]]},"properties":{"name":"Espírito Santo","sigla":"ES"}},{"type":"Feature","geometry":{"type":"MultiPolygon","coordinates":[[[[-50.16,-12.41],[-50.31,-12.82],[-49.37,-13.27],[-49.34,-13.07],[-49.12,-12.79],[-48.98,-12.96],[-48.87,-12.8],[-48.73,-12.93],[-48.58,-13.11],[-48.59,-13.32],[-48.51,-13.13],[-48.44,-13.29],[-48.15,-13.15],[-48.16,-13.31],[-48.06,-13.23],[-47.82,-13.31],[-47.68,-13.47],[-47.63,-13.1],[-47.43,-13.29],[-46.75,-12.97],[-46.45,-12.97],[-46.42,-12.82],[-46.36,-12.99],[-46.11,-12.92],[-46.32,-13.1],[-46.28,-13.35],[-46.04,-13.27],[-46.24,-13.43],[-46.24,-13.55],[-46.16,-13.59],[-46.26,-13.69],[-46.21,-14.02],[-46.27,-14.1],[-46.06,-14.19],[-45.91,-14.38],[-46.02,-14.42],[-45.98,-14.62],[-46.09,-14.94],[-46.29,-14.93],[-46.32,-14.81],[-46.5,-14.7],[-46.56,-14.79],[-46.51,-15.06],[-46.92,-15.05],[-46.94,-15.23],[-46.84,-15.32],[-46.95,-15.56],[-46.85,-15.62],[-46.81,-15.88],[-47.15,-15.93],[-47.32,-16.04],[-47.38,-15.88],[-47.31,-15.59],[-47.42,-15.5],[-48.2,-15.5],[-48.28,-16.05],[-47.3,-16.06],[-47.46,-16.5],[-47.25,-16.66],[-47.13,-17.01],[-47.35,-17.17],[-47.44,-17.35],[-47.51,-17.33],[-47.54,-17.45],[-47.26,-17.62],[-47.37,-17.83],[-47.28,-18.06],[-47.95,-18.5],[-48.26,-18.33],[-48.83,-18.38],[-48.92,-18.3],[-49.08,-18.42],[-49.2,-18.41],[-49.39,-18.65],[-49.53,-18.49],[-49.78,-18.64],[-50.03,-18.6],[-50.32,-18.7],[-50.51,-18.94],[-50.54,-19.11],[-50.68,-19.14],[-50.82,-19.29],[-50.84,-19.5],[-51.13,-19.29],[-52.31,-18.84],[-52.52,-18.66],[-52.92,-18.64],[-52.96,-18.54],[-52.76,-18.35],[-53.1,-18.32],[-53.14,-18.07],[-53.07,-17.99],[-53.25,-17.69],[-53.25,-17.53],[-53.01,-16.86],[-52.78,-16.74],[-52.74,-16.59],[-52.63,-16.55],[-52.68,-16.3],[-52.33,-16.07],[-52.25,-15.89],[-51.88,-15.83],[-51.76,-15.64],[-51.78,-15.54],[-51.7,-15.5],[-51.65,-15.18],[-51.51,-15.05],[-51.34,-14.97],[-51.24,-15.04],[-51.08,-14.91],[-50.96,-14.53],[-50.98,-14.29],[-50.92,-14.11],[-50.83,-14.09],[-50.87,-13.73],[-50.61,-13.32],[-50.61,-13.06],[-50.52,-12.98],[-50.48,-12.71],[-50.16,-12.41]]]]},"properties":{"name":"Goiás","sigla":"GO"}},{"type":"Feature","geometry":{"type":"MultiPolygon","coordinates":[[[[-47.03,-8.98],[-46.91,-8.85],[-46.92,-8.6],[-46.81,-8.4],[-46.54,-8.32],[-46.47,-8.07],[-46.59,-7.9],[-47.04,-8.05],[-47.5,-7.44],[-47.59,-7.44],[-47.48,-7.37],[-47.5,-7.29],[-47.65,-7.3],[-47.75,-7.2],[-47.53,-6.99],[-47.38,-6.27],[-47.48,-5.57],[-47.55,-5.46],[-47.83,-5.39],[-47.93,-5.24],[-48.08,-5.28],[-48.47,-5.18],[-48.61,-5.34],[-48.76,-5.35],[-47.79,-4.58],[-47.62,-4.57],[-47.37,-4.24],[-47.33,-4.06],[-47.09,-3.86],[-47.04,-3.56],[-46.68,-3.09],[-46.68,-2.88],[-46.58,-2.84],[-46.67,-2.7],[-46.41,-2.52],[-46.43,-2.24],[-46.28,-2.15],[-46.21,-1.83],[-46.32,-1.76],[-46.15,-1.68],[-46.15,-1.22],[-46.04,-1.17],[-46.02,-1.06],[-45.97,-1.05],[-45.95,-1.24],[-45.84,-1.05],[-45.91,-1.16],[-45.86,-1.28],[-45.81,-1.16],[-45.84,-1.28],[-45.68,-1.14],[-45.75,-1.24],[-45.68,-1.34],[-45.72,-1.4],[-45.59,-1.26],[-45.59,-1.31],[-45.53,-1.26],[-45.55,-1.35],[-45.5,-1.29],[-45.52,-1.41],[-45.41,-1.29],[-45.48,-1.54],[-45.36,-1.32],[-45.3,-1.34],[-45.29,-1.42],[-45.39,-1.48],[-45.34,-1.47],[-45.38,-1.55],[-45.3,-1.49],[-45.35,-1.74],[-45.31,-1.6],[-45.26,-1.63],[-45.14,-1.46],[-45.13,-1.53],[-45.1,-1.36],[-45.08,-1.52],[-44.94,-1.52],[-44.83,-1.41],[-44.9,-1.61],[-44.82,-1.57],[-44.8,-1.66],[-44.7,-1.55],[-44.72,-1.61],[-44.68,-1.56],[-44.64,-1.62],[-44.79,-1.68],[-44.79,-1.75],[-44.7,-1.74],[-44.81,-1.81],[-44.59,-1.74],[-44.64,-1.86],[-44.53,-1.84],[-44.6,-1.9],[-44.49,-1.93],[-44.5,-2.14],[-44.39,-2.22],[-44.41,-2.41],[-44.33,-2.5],[-44.02,-2.4],[-44.1,-2.46],[-43.96,-2.48],[-44.0,-2.58],[-43.62,-2.22],[-43.5,-2.37],[-43.19,-2.37],[-42.74,-2.56],[-42.7,-2.65],[-42.74,-2.55],[-42.48,-2.71],[-41.82,-2.72],[-41.87,-2.88],[-41.8,-2.97],[-41.94,-3.19],[-42.12,-3.26],[-42.2,-3.44],[-42.5,-3.45],[-42.68,-3.68],[-42.73,-3.92],[-42.99,-4.23],[-42.85,-4.48],[-42.95,-4.79],[-42.8,-5.15],[-42.83,-5.35],[-43.1,-5.63],[-43.08,-6.05],[-42.83,-6.34],[-42.95,-6.71],[-43.46,-6.85],[-43.7,-6.7],[-44.03,-6.76],[-44.31,-7.12],[-44.5,-7.18],[-44.69,-7.39],[-44.82,-7.36],[-44.92,-7.47],[-45.46,-7.67],[-45.77,-8.61],[-45.99,-8.91],[-45.9,-9.33],[-45.78,-9.48],[-45.95,-10.26],[-46.02,-10.18],[-46.37,-10.17],[-46.49,-9.83],[-46.65,-9.73],[-46.56,-9.48],[-46.77,-9.4],[-46.91,-9.08],[-47.07,-9.06],[-47.03,-8.98]],[[-44.81,-1.8],[-44.81,-1.8]],[[-44.57,-1.92],[-44.57,-1.92]],[[-45.75,-1.37],[-45.75,-1.37]],[[-45.89,-1.18],[-45.89,-1.18]],[[-45.82,-1.31],[-45.82,-1.31]],[[-44.69,-1.82],[-44.69,-1.82]],[[-45.39,-1.69],[-45.39,-1.69]],[[-44.8,-1.63],[-44.8,-1.63]],[[-45.13,-1.54],[-45.13,-1.54]],[[-45.82,-1.25],[-45.82,-1.25]],[[-45.58,-1.34],[-45.58,-1.34]],[[-45.8,-1.33],[-45.8,-1.33]],[[-44.83,-1.82],[-44.83,-1.82]],[[-45.37,-1.44],[-45.37,-1.44]],[[-45.91,-1.24],[-45.91,-1.24]],[[-45.59,-1.34],[-45.59,-1.34]],[[-45.39,-1.56],[-45.39,-1.56]]],[[[-44.97,-1.34],[-44.97,-1.28],[-44.84,-1.33],[-44.98,-1.41],[-45.03,-1.34],[-44.97,-1.34]],[[-44.92,-1.34],[-44.92,-1.34]],[[-44.91,-1.32],[-44.91,-1.32]]],[[[-45.68,-1.3],[-45.61,-1.12],[-45.64,-1.36],[-45.68,-1.3]],[[-45.66,-1.3],[-45.66,-1.3]]],[[[-44.8,-1.53],[-44.76,-1.48],[-44.8,-1.53]]],[[[-44.77,-1.53],[-44.75,-1.46],[-44.77,-1.53]]],[[[-45.69,-1.2],[-45.67,-1.26],[-45.69,-1.2]]],[[[-45.54,-1.2],[-45.59,-1.25],[-45.54,-1.2]]],[[[-44.62,-1.79],[-44.62,-1.79]]],[[[-44.73,-1.56],[-44.73,-1.56]]],[[[-45.8,-1.13],[-45.8,-1.13]]],[[[-45.79,-1.19],[-45.79,-1.19]]],[[[-45.56,-1.33],[-45.56,-1.33]]],[[[-45.09,-1.42],[-45.06,-1.37],[-45.09,-1.42]]],[[[-45.1,-1.47],[-45.1,-1.47]]],[[[-45.04,-1.39],[-45.05,-1.34],[-45.04,-1.39]]],[[[-44.75,-1.69],[-44.75,-1.69]]],[[[-45.69,-1.3],[-45.69,-1.3]]],[[[-44.47,-2.08],[-44.47,-2.08]]],[[[-44.48,-2.11],[-44.48,-2.11]]],[[[-45.4,-1.4],[-45.4,-1.4]]],[[[-45.07,-1.45],[-45.07,-1.45]]],[[[-44.72,-1.66],[-44.72,-1.66]]],[[[-44.45,-2.02],[-44.45,-2.02]]],[[[-44.62,-1.81],[-44.62,-1.81]]],[[[-45.09,-1.43],[-45.09,-1.43]]],[[[-45.52,-1.41],[-45.52,-1.41]]],[[[-45.05,-1.33],[-45.05,-1.33]]],[[[-45.79,-1.25],[-45.79,-1.25]]],[[[-45.0,-1.4],[-45.0,-1.4]]],[[[-44.61,-1.83],[-44.61,-1.83]]],[[[-45.63,-1.32],[-45.63,-1.32]]],[[[-44.83,-1.56],[-44.83,-1.56]]],[[[-45.56,-1.26],[-45.56,-1.26]]],[[[-42.75,-2.54],[-42.75,-2.54]]],[[[-44.01,-2.4],[-44.01,-2.4]]],[[[-44.61,-1.78],[-44.61,-1.78]]],[[[-45.64,-1.31],[-45.64,-1.31]]],[[[-45.65,-1.36],[-45.65,-1.36]]],[[[-45.64,-1.25],[-45.64,-1.25]]],[[[-44.02,-2.4],[-44.02,-2.4]]],[[[-45.14,-1.47],[-45.14,-1.47]]],[[[-44.78,-1.57],[-44.78,-1.57]]],[[[-44.88,-1.34],[-44.88,-1.34]]],[[[-45.04,-1.39],[-45.04,-1.39]]],[[[-45.14,-1.49],[-45.14,-1.49]]],[[[-44.46,-2.13],[-44.46,-2.13]]],[[[-45.82,-1.26],[-45.82,-1.26]]],[[[-47.03,-8.98],[-47.03,-8.98]]],[[[-45.11,-1.4],[-45.11,-1.4]]],[[[-45.11,-1.39],[-45.11,-1.39]]],[[[-45.56,-1.26],[-45.56,-1.26]]],[[[-44.76,-1.59],[-44.76,-1.59]]],[[[-45.76,-1.19],[-45.76,-1.19]]]]},"properties":{"name":"Maranhão","sigla":"MA"}},{"type":"Feature","geometry":{"type":"MultiPolygon","coordinates":[[[[-44.21,-14.24],[-43.78,-14.34],[-43.88,-14.66],[-43.72,-14.73],[-43.51,-14.81],[-43.18,-14.65],[-42.94,-14.71],[-42.4,-15.08],[-42.17,-15.09],[-42.09,-15.19],[-41.8,-15.1],[-41.36,-15.49],[-41.33,-15.74],[-41.13,-15.77],[-40.96,-15.65],[-40.7,-15.67],[-40.56,-15.8],[-40.46,-15.75],[-40.4,-15.82],[-40.23,-15.8],[-39.86,-16.1],[-40.16,-16.58],[-40.29,-16.6],[-40.34,-16.79],[-40.25,-16.82],[-40.27,-16.89],[-40.49,-16.88],[-40.57,-17.06],[-40.55,-17.29],[-40.62,-17.41],[-40.22,-17.73],[-40.22,-17.98],[-40.52,-17.89],[-40.7,-18.02],[-40.83,-17.95],[-40.9,-17.99],[-40.77,-18.16],[-40.91,-18.11],[-41.16,-18.31],[-41.18,-18.44],[-41.02,-18.46],[-41.05,-18.63],[-40.94,-18.69],[-40.92,-18.82],[-41.23,-18.8],[-41.24,-18.86],[-41.02,-18.97],[-41.06,-19.06],[-40.92,-19.2],[-40.94,-19.46],[-41.05,-19.49],[-41.04,-19.57],[-41.17,-19.67],[-41.18,-19.89],[-41.31,-19.95],[-41.38,-20.19],[-41.76,-20.21],[-41.85,-20.33],[-41.81,-20.65],[-41.98,-20.93],[-42.15,-20.97],[-42.08,-21.04],[-42.2,-21.16],[-42.25,-21.49],[-42.37,-21.62],[-42.27,-21.71],[-43.06,-22.09],[-43.35,-22.0],[-43.56,-22.09],[-43.77,-22.06],[-44.23,-22.27],[-44.45,-22.25],[-44.66,-22.38],[-45.09,-22.48],[-45.27,-22.62],[-45.48,-22.59],[-45.57,-22.66],[-45.72,-22.58],[-45.69,-22.65],[-45.82,-22.72],[-45.73,-22.72],[-45.71,-22.81],[-45.79,-22.86],[-46.36,-22.9],[-46.33,-22.77],[-46.48,-22.7],[-46.39,-22.66],[-46.41,-22.54],[-46.72,-22.32],[-46.6,-22.14],[-46.72,-22.09],[-46.61,-22.02],[-46.69,-21.84],[-46.52,-21.62],[-46.51,-21.47],[-46.65,-21.36],[-47.01,-21.42],[-47.14,-20.98],[-47.24,-20.89],[-47.1,-20.68],[-47.15,-20.52],[-47.3,-20.43],[-47.23,-20.22],[-47.47,-19.96],[-47.64,-20.05],[-47.7,-19.98],[-47.86,-19.99],[-47.89,-20.12],[-47.99,-20.04],[-48.07,-20.15],[-48.24,-20.03],[-48.25,-20.14],[-48.82,-20.16],[-48.89,-20.44],[-48.97,-20.4],[-48.99,-20.16],[-49.07,-20.15],[-49.22,-20.3],[-49.31,-20.1],[-49.25,-19.97],[-49.46,-19.98],[-49.51,-19.91],[-50.01,-19.93],[-50.47,-19.78],[-51.0,-20.09],[-51.05,-19.73],[-50.92,-19.58],[-50.96,-19.48],[-50.82,-19.48],[-50.88,-19.42],[-50.82,-19.29],[-50.68,-19.14],[-50.54,-19.11],[-50.51,-18.94],[-50.32,-18.7],[-50.03,-18.6],[-49.78,-18.64],[-49.53,-18.49],[-49.39,-18.65],[-49.2,-18.41],[-49.08,-18.42],[-48.92,-18.3],[-48.83,-18.38],[-48.26,-18.33],[-47.95,-18.5],[-47.28,-18.06],[-47.37,-17.83],[-47.26,-17.62],[-47.33,-17.52],[-47.49,-17.53],[-47.54,-17.39],[-47.13,-16.98],[-47.25,-16.66],[-47.46,-16.49],[-47.29,-16.01],[-46.8,-15.86],[-46.85,-15.62],[-46.95,-15.56],[-46.84,-15.32],[-46.94,-15.23],[-46.92,-15.05],[-46.51,-15.06],[-46.56,-14.79],[-46.5,-14.7],[-46.32,-14.81],[-46.29,-14.93],[-46.0,-14.9],[-45.98,-15.04],[-46.12,-15.19],[-46.05,-15.26],[-45.97,-15.15],[-45.72,-15.11],[-45.57,-14.94],[-45.45,-14.95],[-45.2,-14.74],[-45.08,-14.75],[-44.59,-14.35],[-44.21,-14.24]]]]},"properties":{"name":"Minas Gerais","sigla":"MG"}},{"type":"Feature","geometry":{"type":"MultiPolygon","coordinates":[[[[-53.87,-17.92],[-53.72,-18.01],[-53.07,-18.04],[-53.14,-18.07],[-53.1,-18.32],[-52.76,-18.35],[-52.96,-18.54],[-52.92,-18.64],[-52.52,-18.66],[-52.02,-18.98],[-51.07,-19.32],[-50.92,-19.56],[-51.05,-19.73],[-51.0,-20.1],[-51.07,-20.25],[-51.31,-20.33],[-51.59,-20.63],[-51.62,-20.94],[-51.88,-21.14],[-51.86,-21.34],[-51.96,-21.5],[-52.07,-21.5],[-52.05,-21.66],[-52.38,-22.11],[-53.61,-22.95],[-53.73,-23.32],[-53.98,-23.45],[-54.13,-23.98],[-54.29,-24.07],[-54.43,-23.91],[-54.67,-23.81],[-54.93,-23.96],[-55.34,-24.0],[-55.42,-23.96],[-55.43,-23.72],[-55.54,-23.62],[-55.52,-23.2],[-55.6,-23.15],[-55.66,-22.89],[-55.61,-22.66],[-55.85,-22.28],[-56.21,-22.28],[-56.39,-22.07],[-56.5,-22.09],[-56.63,-22.26],[-56.7,-22.22],[-56.85,-22.3],[-57.0,-22.22],[-57.58,-22.18],[-57.61,-22.09],[-57.86,-22.14],[-58.01,-22.05],[-57.91,-21.88],[-57.97,-21.84],[-57.88,-21.68],[-57.97,-21.52],[-57.85,-21.34],[-57.92,-21.28],[-57.85,-21.22],[-57.82,-20.94],[-57.93,-20.9],[-57.86,-20.82],[-57.95,-20.76],[-57.86,-20.74],[-57.92,-20.66],[-57.99,-20.7],[-57.99,-20.44],[-58.17,-20.17],[-57.86,-19.97],[-58.13,-19.76],[-57.78,-19.03],[-57.69,-19.01],[-57.77,-18.9],[-57.56,-18.24],[-57.45,-18.23],[-57.57,-18.13],[-57.8,-17.56],[-57.71,-17.54],[-57.67,-17.73],[-57.45,-17.9],[-57.04,-17.73],[-56.73,-17.31],[-56.44,-17.33],[-56.05,-17.17],[-55.99,-17.26],[-55.64,-17.34],[-55.54,-17.47],[-55.14,-17.65],[-54.82,-17.61],[-54.57,-17.47],[-54.29,-17.66],[-54.08,-17.62],[-54.06,-17.51],[-53.69,-17.23],[-53.71,-17.66],[-53.84,-17.69],[-53.95,-17.86],[-53.87,-17.92]]],[[[-53.87,-17.92],[-53.87,-17.92]]]]},"properties":{"name":"Mato Grosso do Sul","sigla":"MS"}},{"type":"Feature","geometry":{"type":"MultiPolygon","coordinates":[[[[-60.36,-13.3],[-60.28,-13.08],[-60.08,-12.89],[-60.06,-12.6],[-59.85,-12.48],[-59.77,-12.34],[-59.9,-12.23],[-59.98,-11.91],[-60.11,-11.84],[-60.11,-11.58],[-59.92,-11.41],[-59.96,-11.19],[-59.99,-11.11],[-60.38,-11.1],[-60.45,-10.99],[-61.55,-10.99],[-61.46,-10.42],[-61.6,-10.15],[-61.51,-9.89],[-61.57,-9.72],[-61.48,-9.62],[-61.63,-9.26],[-61.53,-9.25],[-61.56,-9.11],[-61.47,-8.92],[-61.58,-8.8],[-58.41,-8.79],[-58.33,-8.73],[-58.44,-8.7],[-58.29,-8.14],[-58.38,-7.84],[-58.2,-7.62],[-58.14,-7.35],[-57.97,-7.53],[-57.83,-7.97],[-57.64,-8.21],[-57.69,-8.41],[-57.6,-8.75],[-57.2,-8.92],[-57.06,-9.06],[-57.06,-9.18],[-56.82,-9.25],[-56.75,-9.41],[-50.22,-9.84],[-50.6,-10.66],[-50.61,-11.07],[-50.73,-11.38],[-50.62,-12.42],[-50.71,-12.61],[-50.63,-12.81],[-50.5,-12.88],[-50.61,-13.06],[-50.58,-13.22],[-50.66,-13.44],[-50.87,-13.73],[-50.83,-14.09],[-50.92,-14.11],[-50.98,-14.29],[-50.96,-14.53],[-51.08,-14.91],[-51.24,-15.04],[-51.34,-14.97],[-51.51,-15.05],[-51.65,-15.18],[-51.7,-15.5],[-51.78,-15.54],[-51.76,-15.64],[-51.88,-15.83],[-52.25,-15.89],[-52.33,-16.07],[-52.68,-16.3],[-52.63,-16.55],[-52.74,-16.59],[-52.78,-16.74],[-53.01,-16.86],[-53.22,-17.3],[-53.25,-17.69],[-53.07,-18.04],[-53.72,-18.01],[-53.95,-17.92],[-53.88,-17.73],[-53.71,-17.66],[-53.69,-17.23],[-54.03,-17.48],[-54.08,-17.62],[-54.35,-17.66],[-54.41,-17.54],[-54.58,-17.47],[-54.82,-17.61],[-55.14,-17.65],[-55.54,-17.47],[-55.64,-17.34],[-56.12,-17.17],[-56.44,-17.33],[-56.73,-17.31],[-57.04,-17.73],[-57.46,-17.9],[-57.67,-17.73],[-57.71,-17.54],[-57.88,-17.45],[-58.03,-17.5],[-58.4,-17.18],[-58.48,-16.8],[-58.44,-16.59],[-58.33,-16.49],[-58.32,-16.26],[-58.42,-16.32],[-60.17,-16.27],[-60.24,-15.47],[-60.56,-15.12],[-60.24,-15.1],[-60.27,-14.62],[-60.49,-14.19],[-60.38,-13.99],[-60.47,-13.79],[-60.72,-13.69],[-60.38,-13.44],[-60.36,-13.3]]],[[[-60.36,-13.3],[-60.36,-13.3]]]]},"properties":{"name":"Mato Grosso","sigla":"MT"}},{"type":"Feature","geometry":{"type":"MultiPolygon","coordinates":[[[[-46.95,-0.73],[-46.94,-0.88],[-46.84,-0.73],[-46.85,-0.86],[-46.79,-0.9],[-46.76,-0.82],[-46.75,-0.92],[-46.65,-0.78],[-46.67,-0.98],[-46.55,-0.9],[-46.54,-0.98],[-46.43,-0.86],[-46.5,-0.97],[-46.43,-1.06],[-46.35,-0.99],[-46.3,-1.08],[-46.27,-0.92],[-46.19,-0.89],[-46.28,-1.17],[-46.17,-0.99],[-46.17,-1.16],[-46.07,-1.02],[-46.16,-1.28],[-46.1,-1.34],[-46.18,-1.48],[-46.15,-1.68],[-46.32,-1.76],[-46.21,-1.83],[-46.27,-2.12],[-46.43,-2.24],[-46.46,-2.36],[-46.41,-2.52],[-46.67,-2.7],[-46.58,-2.84],[-46.68,-2.88],[-46.68,-3.09],[-46.81,-3.31],[-46.94,-3.37],[-47.09,-3.86],[-47.33,-4.06],[-47.37,-4.24],[-47.61,-4.56],[-47.79,-4.58],[-48.76,-5.35],[-48.51,-5.43],[-48.38,-5.39],[-48.14,-5.6],[-48.17,-5.71],[-48.29,-5.74],[-48.23,-5.95],[-48.34,-6.02],[-48.3,-6.12],[-48.44,-6.19],[-48.38,-6.38],[-48.5,-6.35],[-48.61,-6.45],[-48.66,-6.66],[-49.21,-6.92],[-49.18,-7.21],[-49.38,-7.5],[-49.34,-7.66],[-49.15,-7.8],[-49.22,-8.21],[-49.59,-8.84],[-49.74,-8.9],[-50.04,-9.29],[-50.22,-9.84],[-56.75,-9.41],[-56.82,-9.25],[-57.06,-9.18],[-57.06,-9.06],[-57.2,-8.92],[-57.6,-8.75],[-57.69,-8.41],[-57.64,-8.21],[-57.83,-7.97],[-57.9,-7.68],[-58.17,-7.31],[-58.2,-7.14],[-58.43,-6.91],[-58.48,-6.7],[-58.26,-6.47],[-56.4,-2.46],[-56.47,-2.42],[-56.1,-2.03],[-56.41,-2.18],[-56.75,-2.18],[-56.73,-2.02],[-57.03,-1.92],[-57.16,-1.72],[-57.39,-1.72],[-57.95,-1.41],[-58.03,-1.1],[-58.16,-1.23],[-58.43,-1.03],[-58.43,-0.89],[-58.7,-0.68],[-58.73,-0.43],[-58.87,-0.34],[-58.9,1.23],[-58.82,1.17],[-58.7,1.3],[-58.5,1.27],[-58.51,1.46],[-58.38,1.47],[-58.32,1.6],[-58.0,1.5],[-57.99,1.66],[-57.79,1.73],[-57.56,1.69],[-57.31,2.0],[-57.23,1.94],[-57.09,2.03],[-57.01,1.91],[-56.8,1.85],[-56.72,1.93],[-56.45,1.96],[-55.96,1.84],[-55.9,2.04],[-56.14,2.27],[-56.09,2.38],[-56.02,2.34],[-55.98,2.53],[-55.72,2.4],[-55.38,2.42],[-55.32,2.52],[-55.0,2.59],[-54.79,2.31],[-54.74,1.78],[-54.3,1.74],[-54.14,1.64],[-54.09,1.49],[-54.01,1.52],[-53.85,1.39],[-53.64,1.41],[-53.64,1.33],[-53.54,1.34],[-53.54,1.21],[-53.42,1.23],[-53.41,0.93],[-53.1,0.68],[-53.17,0.38],[-52.95,-0.11],[-52.68,-0.31],[-52.64,-0.58],[-52.53,-0.57],[-52.54,-0.85],[-52.4,-0.88],[-52.43,-1.05],[-52.12,-1.15],[-52.1,-1.23],[-51.98,-1.12],[-51.81,-1.16],[-51.7,-1.07],[-51.68,-0.79],[-51.22,-0.12],[-50.67,0.18],[-50.44,0.6],[-50.2,0.7],[-50.09,0.7],[-50.06,0.34],[-49.68,0.37],[-49.48,0.08],[-48.93,-0.23],[-48.41,-0.26],[-48.47,-0.5],[-47.99,-0.71],[-47.9,-0.55],[-47.84,-0.68],[-47.8,-0.55],[-47.77,-0.64],[-47.69,-0.54],[-47.63,-0.7],[-47.54,-0.6],[-47.49,-0.77],[-47.44,-0.59],[-47.42,-0.66],[-47.32,-0.59],[-47.21,-0.64],[-47.24,-0.71],[-47.17,-0.66],[-47.17,-0.78],[-47.09,-0.66],[-47.06,-0.81],[-47.04,-0.73],[-46.95,-0.73]]],[[[-46.4,-0.95],[-46.44,-0.99],[-46.4,-0.95]]],[[[-46.08,-1.07],[-46.08,-1.07]]],[[[-47.03,-0.69],[-47.03,-0.69]]],[[[-46.38,-1.0],[-46.38,-1.0]]],[[[-47.84,-0.66],[-47.84,-0.66]]],[[[-46.44,-1.01],[-46.44,-1.01]]],[[[-46.33,-0.95],[-46.33,-0.95]]],[[[-46.61,-0.83],[-46.61,-0.83]]],[[[-46.61,-0.86],[-46.61,-0.86]]],[[[-47.03,-0.72],[-47.03,-0.72]]],[[[-46.47,-0.96],[-46.47,-0.96]]],[[[-46.21,-0.94],[-46.21,-0.94]]],[[[-46.95,-0.74],[-46.95,-0.74]]],[[[-47.02,-0.71],[-47.02,-0.71]]],[[[-46.27,-0.93],[-46.27,-0.93]]]]},"properties":{"name":"Pará","sigla":"PA"}},{"type":"Feature","geometry":{"type":"MultiPolygon","coordinates":[[[[-37.23,-6.04],[-37.16,-6.17],[-37.38,-6.34],[-37.48,-6.71],[-37.28,-6.69],[-37.19,-6.83],[-37.0,-6.71],[-36.96,-6.79],[-36.84,-6.73],[-36.73,-6.84],[-36.72,-6.98],[-36.51,-6.82],[-36.56,-6.71],[-36.44,-6.56],[-36.53,-6.45],[-36.39,-6.29],[-36.28,-6.31],[-36.25,-6.44],[-36.06,-6.41],[-35.98,-6.49],[-35.63,-6.45],[-35.17,-6.56],[-34.97,-6.49],[-34.79,-7.15],[-34.81,-7.52],[-34.96,-7.54],[-35.06,-7.4],[-35.24,-7.37],[-35.49,-7.45],[-35.54,-7.66],[-36.0,-7.81],[-36.41,-7.81],[-36.45,-7.92],[-36.62,-7.96],[-36.64,-8.12],[-36.95,-8.3],[-37.16,-8.17],[-37.19,-7.96],[-37.35,-7.97],[-37.15,-7.78],[-37.17,-7.58],[-36.98,-7.48],[-37.2,-7.29],[-37.5,-7.37],[-37.75,-7.67],[-37.86,-7.65],[-38.08,-7.83],[-38.29,-7.83],[-38.36,-7.68],[-38.61,-7.74],[-38.72,-7.61],[-38.53,-7.29],[-38.69,-7.19],[-38.66,-7.08],[-38.77,-6.91],[-38.61,-6.78],[-38.67,-6.7],[-38.52,-6.41],[-38.58,-6.36],[-38.46,-6.33],[-38.49,-6.4],[-38.12,-6.52],[-37.76,-6.29],[-37.75,-6.19],[-37.23,-6.04]]],[[[-34.86,-6.98],[-34.86,-6.98]]]]},"properties":{"name":"Paraíba","sigla":"PB"}},{"type":"Feature","geometry":{"type":"MultiPolygon","coordinates":[[[[-37.18,-7.31],[-36.98,-7.48],[-37.17,-7.58],[-37.15,-7.78],[-37.35,-7.97],[-37.19,-7.96],[-37.16,-8.17],[-36.99,-8.3],[-36.64,-8.12],[-36.62,-7.96],[-36.45,-7.92],[-36.41,-7.81],[-36.0,-7.81],[-35.54,-7.66],[-35.49,-7.45],[-35.24,-7.37],[-34.84,-7.54],[-34.84,-8.01],[-35.15,-8.91],[-35.47,-8.81],[-35.75,-8.92],[-35.9,-8.85],[-36.13,-8.96],[-36.12,-9.03],[-36.27,-9.1],[-36.22,-9.17],[-36.44,-9.21],[-36.59,-9.34],[-36.87,-9.27],[-36.95,-9.38],[-37.08,-9.25],[-37.23,-9.24],[-37.49,-8.96],[-37.69,-9.0],[-37.78,-8.86],[-37.98,-9.15],[-38.24,-9.33],[-38.29,-9.04],[-38.5,-8.98],[-38.48,-8.85],[-38.57,-8.83],[-38.64,-8.99],[-38.8,-8.79],[-39.23,-8.71],[-39.27,-8.58],[-39.38,-8.53],[-39.69,-8.66],[-39.67,-8.79],[-39.89,-8.83],[-39.96,-9.05],[-40.13,-9.11],[-40.25,-9.06],[-40.36,-9.38],[-40.62,-9.48],[-40.78,-9.45],[-40.67,-9.16],[-40.82,-9.08],[-40.9,-8.86],[-41.03,-8.84],[-41.11,-8.7],[-41.36,-8.71],[-41.0,-8.4],[-40.91,-8.44],[-40.59,-8.14],[-40.54,-7.83],[-40.67,-7.76],[-40.64,-7.61],[-40.71,-7.47],[-40.55,-7.39],[-40.32,-7.37],[-40.25,-7.43],[-39.66,-7.31],[-39.31,-7.55],[-39.31,-7.67],[-39.13,-7.72],[-39.09,-7.86],[-38.96,-7.84],[-38.72,-7.62],[-38.56,-7.76],[-38.36,-7.68],[-38.29,-7.83],[-38.08,-7.83],[-37.86,-7.65],[-37.75,-7.67],[-37.5,-7.37],[-37.26,-7.27],[-37.18,-7.31]]],[[[-32.41,-3.84],[-32.47,-3.88],[-32.41,-3.84]]],[[[-32.4,-3.84],[-32.4,-3.84]]]]},"properties":{"name":"Pernambuco","sigla":"PE"}},{"type":"Feature","geometry":{"type":"MultiPolygon","coordinates":[[[[-41.74,-2.81],[-41.27,-2.97],[-41.26,-3.09],[-41.42,-3.37],[-41.3,-3.49],[-41.37,-3.56],[-41.34,-3.68],[-41.24,-3.71],[-41.3,-3.83],[-41.22,-3.94],[-41.25,-4.04],[-41.11,-4.04],[-41.09,-4.17],[-41.24,-4.57],[-41.17,-4.67],[-41.25,-4.87],[-40.92,-5.18],[-40.91,-6.05],[-40.78,-6.32],[-40.79,-6.52],[-40.71,-6.68],[-40.37,-6.8],[-40.55,-7.39],[-40.71,-7.47],[-40.64,-7.61],[-40.67,-7.76],[-40.54,-7.83],[-40.59,-8.14],[-40.91,-8.44],[-41.0,-8.4],[-41.21,-8.64],[-41.38,-8.71],[-41.54,-8.96],[-41.73,-9.02],[-41.84,-9.24],[-42.23,-9.28],[-42.77,-9.62],[-42.95,-9.52],[-42.98,-9.4],[-43.28,-9.42],[-43.46,-9.26],[-43.57,-9.31],[-43.85,-9.55],[-43.78,-9.76],[-43.65,-9.84],[-43.69,-10.08],[-43.77,-10.08],[-43.91,-10.42],[-44.02,-10.4],[-44.13,-10.64],[-44.32,-10.55],[-44.59,-10.63],[-44.93,-10.93],[-45.25,-10.82],[-45.44,-10.62],[-45.4,-10.45],[-45.59,-10.11],[-45.79,-10.27],[-45.95,-10.26],[-45.78,-9.48],[-45.9,-9.33],[-45.99,-8.91],[-45.77,-8.61],[-45.5,-7.75],[-45.32,-7.57],[-44.92,-7.47],[-44.82,-7.36],[-44.69,-7.39],[-44.5,-7.18],[-44.31,-7.12],[-44.03,-6.76],[-43.7,-6.7],[-43.46,-6.85],[-42.95,-6.71],[-42.83,-6.34],[-43.08,-6.05],[-43.1,-5.63],[-42.83,-5.35],[-42.8,-5.15],[-42.95,-4.79],[-42.85,-4.48],[-42.99,-4.23],[-42.73,-3.92],[-42.68,-3.68],[-42.5,-3.45],[-42.2,-3.44],[-42.12,-3.26],[-41.99,-3.24],[-41.82,-3.02],[-41.85,-2.77],[-41.74,-2.81]]]]},"properties":{"name":"Piauí","sigla":"PI"}},{"type":"Feature","geometry":{"type":"MultiPolygon","coordinates":[[[[-52.06,-22.53],[-51.56,-22.7],[-51.26,-22.67],[-50.84,-22.83],[-50.8,-22.95],[-50.66,-22.89],[-50.5,-22.95],[-49.99,-22.9],[-49.91,-23.05],[-49.74,-23.1],[-49.57,-23.43],[-49.63,-23.51],[-49.55,-23.7],[-49.61,-23.85],[-49.2,-24.34],[-49.31,-24.66],[-48.58,-24.67],[-48.5,-24.74],[-48.6,-25.0],[-48.56,-25.08],[-48.41,-24.98],[-48.33,-25.07],[-48.25,-24.98],[-48.19,-25.2],[-48.02,-25.23],[-48.44,-25.65],[-48.59,-25.98],[-49.17,-26.0],[-49.55,-26.24],[-49.94,-26.01],[-50.17,-26.02],[-50.18,-26.08],[-50.25,-26.03],[-50.34,-26.13],[-50.57,-26.0],[-50.73,-26.25],[-51.08,-26.23],[-51.24,-26.32],[-51.3,-26.42],[-51.23,-26.62],[-51.41,-26.72],[-51.51,-26.58],[-51.88,-26.6],[-52.18,-26.45],[-52.74,-26.34],[-53.09,-26.39],[-53.28,-26.25],[-53.55,-26.29],[-53.83,-25.98],[-53.89,-25.62],[-53.95,-25.65],[-54.02,-25.56],[-54.1,-25.62],[-54.09,-25.5],[-54.21,-25.54],[-54.17,-25.58],[-54.38,-25.59],[-54.43,-25.7],[-54.59,-25.59],[-54.62,-25.45],[-54.43,-25.16],[-54.46,-25.03],[-54.26,-24.37],[-54.34,-24.12],[-54.1,-23.95],[-53.98,-23.45],[-53.73,-23.32],[-53.61,-22.95],[-52.98,-22.57],[-52.25,-22.61],[-52.21,-22.67],[-52.06,-22.53]]]]},"properties":{"name":"Paraná","sigla":"PR"}},{"type":"Feature","geometry":{"type":"MultiPolygon","coordinates":[[[[-44.51,-23.29],[-44.73,-23.37],[-44.88,-23.25],[-44.79,-22.98],[-44.51,-22.85],[-44.28,-22.84],[-44.16,-22.67],[-44.38,-22.57],[-44.61,-22.62],[-44.8,-22.39],[-44.45,-22.25],[-44.23,-22.27],[-43.77,-22.06],[-43.56,-22.09],[-43.35,-22.0],[-43.06,-22.09],[-42.3,-21.73],[-42.27,-21.68],[-42.37,-21.62],[-42.25,-21.49],[-42.21,-21.18],[-42.08,-21.04],[-42.15,-20.97],[-41.98,-20.93],[-41.85,-20.76],[-41.71,-20.87],[-41.72,-21.12],[-41.44,-21.22],[-41.08,-21.22],[-40.96,-21.3],[-41.07,-21.51],[-40.98,-22.0],[-41.69,-22.3],[-41.96,-22.53],[-41.98,-22.73],[-41.86,-22.75],[-42.03,-22.9],[-42.01,-23.0],[-42.37,-22.93],[-43.05,-22.98],[-43.14,-22.9],[-43.03,-22.75],[-43.09,-22.68],[-43.28,-22.78],[-43.15,-22.95],[-43.29,-23.02],[-43.71,-23.06],[-43.57,-23.05],[-43.87,-22.9],[-44.17,-23.05],[-44.35,-23.03],[-44.34,-22.92],[-44.45,-23.03],[-44.67,-23.05],[-44.71,-23.23],[-44.64,-23.18],[-44.66,-23.3],[-44.6,-23.23],[-44.51,-23.29]],[[-43.36,-22.99],[-43.3,-23.01],[-43.41,-22.98],[-43.36,-22.99]]],[[[-44.23,-23.09],[-44.09,-23.18],[-44.35,-23.23],[-44.38,-23.17],[-44.23,-23.09]]],[[[-43.83,-23.06],[-44.01,-23.09],[-43.83,-23.06]]],[[[-43.18,-22.78],[-43.26,-22.82],[-43.18,-22.78]]],[[[-43.91,-22.94],[-43.91,-22.94]]],[[[-43.24,-22.86],[-43.24,-22.86]]],[[[-43.93,-23.01],[-43.93,-23.01]]],[[[-44.59,-23.21],[-44.59,-23.21]]],[[[-44.05,-23.0],[-44.05,-23.0]]],[[[-44.69,-23.16],[-44.69,-23.16]]],[[[-41.7,-22.41],[-41.7,-22.41]]],[[[-44.51,-23.29],[-44.51,-23.29]]],[[[-43.11,-22.76],[-43.11,-22.76]]],[[[-43.11,-22.76],[-43.11,-22.76]]],[[[-43.18,-22.9],[-43.18,-22.9]]],[[[-44.65,-23.07],[-44.65,-23.07]]],[[[-43.86,-22.95],[-43.86,-22.95]]],[[[-41.69,-22.4],[-41.69,-22.4]]],[[[-44.58,-23.2],[-44.58,-23.2]]],[[[-44.58,-23.19],[-44.58,-23.19]]],[[[-43.91,-22.98],[-43.91,-22.98]]],[[[-44.65,-23.23],[-44.65,-23.23]]],[[[-41.89,-22.78],[-41.89,-22.78]]],[[[-44.13,-23.04],[-44.13,-23.04]]],[[[-43.92,-22.94],[-43.92,-22.94]]],[[[-43.51,-23.07],[-43.51,-23.07]]],[[[-43.15,-23.06],[-43.15,-23.06]]],[[[-44.64,-23.23],[-44.64,-23.23]]],[[[-43.94,-23.02],[-43.94,-23.02]]],[[[-44.69,-23.21],[-44.69,-23.21]]],[[[-43.95,-23.0],[-43.95,-23.0]]],[[[-43.21,-23.04],[-43.21,-23.04]]],[[[-44.67,-23.1],[-44.67,-23.1]]],[[[-43.95,-23.02],[-43.95,-23.02]]],[[[-43.86,-22.95],[-43.86,-22.95]]],[[[-44.67,-23.11],[-44.67,-23.11]]]]},"properties":{"name":"Rio de Janeiro","sigla":"RJ"}},{"type":"Feature","geometry":{"type":"MultiPolygon","coordinates":[[[[-37.15,-4.93],[-36.95,-4.92],[-36.7,-5.09],[-35.95,-5.04],[-35.49,-5.16],[-35.26,-5.48],[-34.97,-6.49],[-35.17,-6.56],[-35.63,-6.45],[-35.98,-6.49],[-36.06,-6.41],[-36.25,-6.44],[-36.28,-6.31],[-36.39,-6.29],[-36.53,-6.45],[-36.44,-6.56],[-36.56,-6.71],[-36.51,-6.82],[-36.72,-6.98],[-36.73,-6.84],[-36.84,-6.73],[-36.96,-6.79],[-37.0,-6.71],[-37.19,-6.83],[-37.28,-6.69],[-37.48,-6.71],[-37.48,-6.54],[-37.4,-6.51],[-37.38,-6.34],[-37.16,-6.17],[-37.17,-6.05],[-37.75,-6.19],[-37.76,-6.29],[-38.12,-6.52],[-38.49,-6.4],[-38.46,-6.33],[-38.58,-6.35],[-38.45,-6.08],[-38.3,-6.09],[-38.12,-5.89],[-38.08,-5.66],[-37.9,-5.5],[-37.64,-4.93],[-37.25,-4.83],[-37.15,-4.93]]]]},"properties":{"name":"Rio Grande do Norte","sigla":"RN"}},{"type":"Feature","geometry":{"type":"MultiPolygon","coordinates":[[[[-66.46,-9.88],[-66.81,-9.81],[-66.5,-9.63],[-66.39,-9.5],[-66.41,-9.41],[-66.0,-9.4],[-65.8,-9.59],[-65.6,-9.41],[-65.43,-9.47],[-65.45,-9.32],[-65.25,-9.26],[-65.18,-9.43],[-65.09,-9.43],[-64.93,-9.25],[-64.92,-9.04],[-64.84,-8.99],[-64.15,-8.96],[-64.13,-8.72],[-63.92,-8.57],[-63.94,-8.33],[-63.77,-8.32],[-63.62,-7.97],[-62.87,-7.97],[-62.69,-8.09],[-62.53,-8.38],[-62.36,-8.4],[-62.34,-8.61],[-62.19,-8.59],[-62.12,-8.8],[-61.92,-8.88],[-61.84,-8.73],[-61.71,-8.69],[-61.47,-8.92],[-61.56,-9.11],[-61.53,-9.25],[-61.63,-9.26],[-61.48,-9.62],[-61.57,-9.72],[-61.51,-9.89],[-61.6,-10.15],[-61.46,-10.42],[-61.55,-10.99],[-60.45,-10.99],[-60.35,-11.11],[-59.99,-11.11],[-59.92,-11.41],[-60.11,-11.58],[-60.11,-11.84],[-59.98,-11.91],[-59.9,-12.23],[-59.77,-12.34],[-59.85,-12.48],[-60.06,-12.6],[-60.08,-12.89],[-60.28,-13.08],[-60.38,-13.44],[-60.71,-13.69],[-61.04,-13.48],[-61.84,-13.55],[-62.17,-13.11],[-62.38,-13.14],[-62.65,-12.96],[-62.78,-13.01],[-63.16,-12.61],[-63.23,-12.69],[-63.37,-12.66],[-63.44,-12.56],[-63.78,-12.43],[-63.94,-12.53],[-64.29,-12.5],[-64.5,-12.37],[-64.51,-12.22],[-64.7,-12.19],[-64.71,-12.09],[-64.75,-12.16],[-64.83,-12.12],[-64.84,-12.01],[-65.03,-12.0],[-65.08,-11.71],[-65.26,-11.71],[-65.21,-11.52],[-65.31,-11.49],[-65.29,-11.32],[-65.36,-11.25],[-65.25,-10.98],[-65.42,-10.62],[-65.43,-10.48],[-65.29,-10.24],[-65.28,-9.86],[-65.37,-9.7],[-65.45,-9.67],[-65.55,-9.84],[-65.77,-9.73],[-65.78,-9.79],[-65.92,-9.75],[-66.46,-9.88]]],[[[-66.46,-9.88],[-66.46,-9.88]]]]},"properties":{"name":"Rondônia","sigla":"RO"}},{"type":"Feature","geometry":{"type":"MultiPolygon","coordinates":[[[[-59.92,3.15],[-59.99,2.68],[-59.9,2.36],[-59.72,2.28],[-59.75,1.86],[-59.66,1.87],[-59.69,1.76],[-59.53,1.72],[-59.27,1.4],[-58.89,1.27],[-58.9,0.26],[-60.04,0.26],[-60.4,-0.51],[-60.3,-0.71],[-60.48,-0.77],[-60.53,-0.88],[-60.75,-0.86],[-60.92,-0.56],[-61.09,-0.5],[-61.43,-0.63],[-61.54,-0.76],[-61.59,-0.94],[-61.54,-1.06],[-61.63,-1.29],[-61.48,-1.58],[-61.63,-1.43],[-61.9,-1.4],[-62.02,-1.14],[-62.51,-0.76],[-62.49,-0.68],[-62.41,-0.73],[-62.29,-0.65],[-62.31,-0.51],[-62.19,-0.33],[-62.52,0.44],[-62.47,1.09],[-62.55,1.12],[-62.64,1.44],[-62.81,1.6],[-62.72,1.71],[-62.71,1.95],[-63.07,2.04],[-63.16,2.18],[-63.36,2.2],[-63.41,2.44],[-63.74,2.38],[-64.06,2.5],[-63.98,2.73],[-64.23,3.11],[-64.25,3.43],[-64.18,3.55],[-64.29,3.7],[-64.5,3.8],[-64.82,4.27],[-64.69,4.25],[-64.56,4.1],[-64.16,4.13],[-63.97,3.87],[-63.86,3.95],[-63.67,3.91],[-63.68,4.02],[-63.5,3.84],[-63.43,3.98],[-63.21,3.95],[-63.22,3.82],[-63.09,3.79],[-63.08,3.69],[-62.95,3.61],[-62.84,3.74],[-62.74,3.67],[-62.75,4.04],[-62.57,4.01],[-62.46,4.18],[-62.15,4.08],[-61.98,4.18],[-61.93,4.1],[-61.75,4.26],[-61.56,4.25],[-61.51,4.41],[-61.28,4.47],[-61.32,4.54],[-60.99,4.52],[-60.91,4.71],[-60.74,4.76],[-60.59,4.93],[-60.72,5.22],[-60.43,5.18],[-60.2,5.27],[-59.99,5.05],[-60.03,4.7],[-60.16,4.5],[-59.79,4.47],[-59.68,4.38],[-59.72,4.17],[-59.62,4.14],[-59.65,4.07],[-59.52,3.96],[-59.66,3.71],[-59.87,3.58],[-59.8,3.51],[-59.81,3.35],[-59.92,3.15]]]]},"properties":{"name":"Roraima","sigla":"RR"}},{"type":"Feature","geometry":{"type":"MultiPolygon","coordinates":[[[[-52.04,-31.57],[-52.11,-31.55],[-52.05,-31.64],[-52.26,-31.85],[-52.11,-31.94],[-52.1,-32.16],[-52.31,-32.36],[-52.62,-33.11],[-53.42,-33.75],[-53.53,-33.69],[-53.51,-33.53],[-53.46,-33.58],[-53.43,-33.5],[-53.45,-33.19],[-53.32,-33.05],[-53.26,-33.11],[-53.2,-33.04],[-53.13,-32.79],[-53.06,-32.83],[-52.98,-32.73],[-53.0,-32.8],[-52.87,-32.91],[-52.73,-32.84],[-52.59,-32.56],[-52.69,-32.33],[-52.62,-32.14],[-52.8,-32.27],[-52.82,-32.34],[-52.72,-32.39],[-52.95,-32.48],[-53.08,-32.66],[-53.39,-32.59],[-53.64,-32.38],[-53.74,-32.08],[-53.96,-31.92],[-54.1,-31.93],[-54.58,-31.46],[-54.84,-31.44],[-55.0,-31.27],[-55.08,-31.33],[-55.24,-31.26],[-55.35,-31.04],[-55.58,-30.83],[-55.88,-31.08],[-56.01,-31.08],[-56.01,-30.8],[-56.81,-30.1],[-57.08,-30.09],[-57.2,-30.29],[-57.52,-30.29],[-57.64,-30.18],[-57.46,-30.11],[-57.29,-29.82],[-57.11,-29.76],[-56.81,-29.48],[-56.58,-29.11],[-56.41,-29.07],[-56.29,-28.79],[-56.0,-28.6],[-56.02,-28.51],[-55.89,-28.48],[-55.87,-28.36],[-55.69,-28.42],[-55.67,-28.33],[-55.77,-28.24],[-55.6,-28.11],[-55.55,-28.16],[-55.44,-28.1],[-55.21,-27.86],[-55.03,-27.86],[-55.08,-27.78],[-54.93,-27.77],[-54.81,-27.53],[-54.77,-27.59],[-54.67,-27.57],[-54.67,-27.5],[-54.63,-27.55],[-54.59,-27.45],[-54.53,-27.5],[-54.41,-27.41],[-54.28,-27.45],[-54.17,-27.25],[-54.08,-27.3],[-53.88,-27.13],[-53.63,-27.22],[-53.36,-27.09],[-53.29,-27.13],[-53.31,-27.22],[-53.07,-27.16],[-53.02,-27.08],[-52.99,-27.22],[-52.85,-27.17],[-52.7,-27.28],[-52.43,-27.22],[-52.22,-27.33],[-52.17,-27.27],[-51.96,-27.37],[-52.01,-27.4],[-51.89,-27.52],[-51.62,-27.49],[-51.58,-27.58],[-51.49,-27.56],[-51.43,-27.66],[-51.39,-27.62],[-51.08,-27.83],[-50.62,-28.39],[-50.16,-28.5],[-50.13,-28.43],[-49.77,-28.46],[-49.69,-28.62],[-49.94,-28.73],[-49.92,-28.98],[-50.01,-29.07],[-49.95,-29.09],[-50.17,-29.25],[-50.03,-29.35],[-50.11,-29.25],[-49.93,-29.2],[-49.71,-29.32],[-50.08,-29.88],[-50.34,-30.52],[-50.77,-31.11],[-51.25,-31.57],[-51.82,-31.91],[-52.08,-32.16],[-52.01,-31.94],[-52.1,-31.84],[-51.85,-31.87],[-51.79,-31.81],[-51.87,-31.8],[-51.66,-31.77],[-51.51,-31.58],[-51.44,-31.62],[-51.42,-31.47],[-51.38,-31.53],[-51.26,-31.48],[-51.16,-31.3],[-51.18,-31.08],[-50.99,-31.05],[-50.97,-30.9],[-50.7,-30.75],[-50.72,-30.35],[-50.62,-30.39],[-50.63,-30.33],[-50.59,-30.4],[-50.65,-30.46],[-50.57,-30.48],[-50.54,-30.25],[-50.6,-30.19],[-50.67,-30.3],[-50.91,-30.32],[-50.92,-30.44],[-51.06,-30.39],[-51.03,-30.27],[-51.25,-30.19],[-51.23,-30.04],[-51.3,-30.0],[-51.3,-30.29],[-51.09,-30.38],[-51.14,-30.47],[-51.15,-30.41],[-51.25,-30.45],[-51.3,-30.75],[-51.33,-30.63],[-51.39,-30.65],[-51.37,-30.87],[-51.5,-30.91],[-51.44,-31.09],[-51.63,-31.15],[-51.62,-31.27],[-51.96,-31.35],[-52.03,-31.7],[-52.04,-31.57]]],[[[-51.3,-30.75],[-51.29,-30.82],[-51.3,-30.75]]],[[[-50.1,-29.24],[-50.1,-29.24]]],[[[-51.15,-30.47],[-51.15,-30.47]]],[[[-49.96,-29.07],[-49.96,-29.07]]],[[[-51.3,-30.05],[-51.3,-30.05]]],[[[-52.1,-31.8],[-52.1,-31.8]]],[[[-53.42,-33.13],[-53.42,-33.13]]],[[[-49.97,-29.12],[-49.97,-29.12]]],[[[-51.47,-31.55],[-51.47,-31.55]]],[[[-51.17,-30.26],[-51.17,-30.26]]],[[[-51.1,-30.26],[-51.1,-30.26]]],[[[-52.04,-31.57],[-52.04,-31.57]]],[[[-51.19,-30.23],[-51.19,-30.23]]]]},"properties":{"name":"Rio Grande do Sul","sigla":"RS"}},{"type":"Feature","geometry":{"type":"MultiPolygon","coordinates":[[[[-53.72,-26.56],[-53.64,-26.25],[-53.46,-26.3],[-53.38,-26.24],[-53.09,-26.39],[-52.74,-26.34],[-52.18,-26.45],[-51.88,-26.6],[-51.51,-26.58],[-51.41,-26.72],[-51.23,-26.62],[-51.3,-26.42],[-51.24,-26.32],[-51.08,-26.23],[-50.73,-26.25],[-50.57,-26.0],[-50.34,-26.13],[-50.25,-26.03],[-50.18,-26.08],[-50.17,-26.02],[-49.94,-26.01],[-49.55,-26.24],[-49.17,-26.0],[-48.64,-25.96],[-48.59,-26.15],[-48.49,-26.22],[-48.69,-26.69],[-48.58,-26.8],[-48.64,-26.86],[-48.57,-27.01],[-48.61,-27.11],[-48.47,-27.14],[-48.48,-27.21],[-48.62,-27.25],[-48.52,-27.33],[-48.65,-27.48],[-48.57,-27.59],[-48.64,-27.63],[-48.57,-27.89],[-48.74,-28.51],[-49.38,-28.95],[-49.71,-29.32],[-49.97,-29.2],[-50.11,-29.25],[-50.04,-29.35],[-50.17,-29.25],[-49.96,-29.12],[-49.94,-29.06],[-50.01,-29.07],[-49.92,-28.98],[-49.94,-28.73],[-49.69,-28.62],[-49.77,-28.46],[-50.13,-28.43],[-50.16,-28.5],[-50.25,-28.43],[-50.54,-28.43],[-50.79,-28.14],[-50.87,-28.14],[-50.89,-28.02],[-51.08,-27.83],[-51.39,-27.62],[-51.43,-27.66],[-51.49,-27.56],[-51.58,-27.58],[-51.62,-27.49],[-51.89,-27.52],[-52.01,-27.4],[-51.96,-27.37],[-52.17,-27.27],[-52.22,-27.33],[-52.43,-27.22],[-52.69,-27.28],[-52.85,-27.17],[-52.99,-27.22],[-53.02,-27.08],[-53.07,-27.16],[-53.31,-27.22],[-53.29,-27.13],[-53.36,-27.09],[-53.51,-27.14],[-53.49,-27.2],[-53.83,-27.17],[-53.8,-27.04],[-53.67,-26.95],[-53.75,-26.74],[-53.72,-26.56]]],[[[-48.41,-27.39],[-48.36,-27.45],[-48.48,-27.78],[-48.57,-27.84],[-48.55,-27.46],[-48.41,-27.39]]],[[[-48.56,-27.48],[-48.56,-27.48]]]]},"properties":{"name":"Santa Catarina","sigla":"SC"}},{"type":"Feature","geometry":{"type":"MultiPolygon","coordinates":[[[[-37.96,-9.53],[-36.97,-9.99],[-36.91,-10.14],[-36.62,-10.26],[-36.56,-10.42],[-36.43,-10.42],[-36.39,-10.5],[-36.81,-10.7],[-37.33,-11.45],[-37.52,-11.55],[-37.69,-11.57],[-37.96,-11.41],[-37.97,-11.2],[-38.24,-10.88],[-38.21,-10.71],[-38.0,-10.76],[-37.81,-10.69],[-37.86,-10.43],[-37.74,-10.31],[-37.83,-10.0],[-38.0,-9.92],[-38.04,-9.57],[-37.96,-9.53]]]]},"properties":{"name":"Sergipe","sigla":"SE"}},{"type":"Feature","geometry":{"type":"MultiPolygon","coordinates":[[[[-46.14,-23.86],[-46.18,-23.99],[-46.29,-24.04],[-46.39,-23.97],[-46.94,-24.28],[-47.0,-24.41],[-47.75,-24.89],[-48.1,-25.31],[-48.02,-25.23],[-48.19,-25.2],[-48.25,-24.98],[-48.33,-25.07],[-48.41,-24.98],[-48.56,-25.08],[-48.6,-25.0],[-48.5,-24.74],[-48.58,-24.67],[-49.31,-24.66],[-49.2,-24.34],[-49.61,-23.85],[-49.55,-23.7],[-49.62,-23.64],[-49.57,-23.43],[-49.65,-23.21],[-49.91,-23.05],[-49.99,-22.9],[-50.5,-22.95],[-50.66,-22.89],[-50.8,-22.95],[-50.84,-22.83],[-51.26,-22.67],[-51.56,-22.7],[-52.09,-22.52],[-52.21,-22.67],[-52.58,-22.57],[-52.7,-22.63],[-52.98,-22.57],[-53.09,-22.66],[-53.11,-22.6],[-52.34,-22.06],[-52.05,-21.66],[-52.07,-21.5],[-51.96,-21.5],[-51.86,-21.34],[-51.88,-21.14],[-51.62,-20.94],[-51.59,-20.63],[-51.35,-20.36],[-51.07,-20.25],[-50.97,-20.03],[-50.56,-19.81],[-49.85,-19.95],[-49.26,-19.96],[-49.31,-20.1],[-49.24,-20.29],[-48.99,-20.16],[-48.97,-20.4],[-48.9,-20.44],[-48.82,-20.16],[-48.25,-20.14],[-48.24,-20.03],[-48.07,-20.15],[-47.99,-20.04],[-47.89,-20.12],[-47.86,-19.99],[-47.7,-19.98],[-47.64,-20.05],[-47.47,-19.96],[-47.23,-20.22],[-47.3,-20.43],[-47.15,-20.52],[-47.1,-20.68],[-47.24,-20.89],[-47.14,-20.98],[-47.01,-21.42],[-46.65,-21.36],[-46.51,-21.47],[-46.52,-21.62],[-46.69,-21.84],[-46.61,-22.02],[-46.72,-22.09],[-46.6,-22.14],[-46.72,-22.32],[-46.41,-22.54],[-46.39,-22.66],[-46.48,-22.7],[-46.33,-22.77],[-46.36,-22.9],[-45.79,-22.86],[-45.71,-22.81],[-45.73,-22.72],[-45.82,-22.72],[-45.69,-22.65],[-45.72,-22.58],[-45.67,-22.65],[-45.48,-22.59],[-45.4,-22.65],[-44.81,-22.41],[-44.61,-22.62],[-44.38,-22.57],[-44.16,-22.67],[-44.28,-22.84],[-44.51,-22.85],[-44.79,-22.98],[-44.89,-23.22],[-44.72,-23.37],[-44.91,-23.33],[-45.07,-23.43],[-45.02,-23.46],[-45.08,-23.52],[-45.17,-23.49],[-45.21,-23.58],[-45.41,-23.62],[-45.41,-23.82],[-45.89,-23.76],[-46.14,-23.86]]],[[[-45.32,-23.91],[-45.46,-23.92],[-45.33,-23.72],[-45.24,-23.76],[-45.29,-23.87],[-45.22,-23.9],[-45.24,-23.96],[-45.32,-23.91]]],[[[-45.08,-23.54],[-45.08,-23.54]]],[[[-45.14,-23.8],[-45.14,-23.8]]],[[[-45.16,-23.57],[-45.16,-23.57]]],[[[-45.02,-23.76],[-45.02,-23.76]]],[[[-45.78,-23.87],[-45.78,-23.87]]],[[[-45.29,-23.6],[-45.29,-23.6]]],[[[-45.02,-23.75],[-45.02,-23.75]]],[[[-45.73,-23.8],[-45.73,-23.8]]],[[[-45.53,-23.85],[-45.53,-23.85]]],[[[-46.91,-24.39],[-46.91,-24.39]]],[[[-46.91,-24.37],[-46.91,-24.37]]],[[[-45.03,-23.55],[-45.03,-23.55]]],[[[-44.85,-23.4],[-44.85,-23.4]]],[[[-44.95,-23.39],[-44.95,-23.39]]],[[[-46.98,-24.37],[-46.98,-24.37]]],[[[-47.91,-25.17],[-47.91,-25.17]]],[[[-45.23,-23.81],[-45.23,-23.81]]],[[[-45.33,-23.92],[-45.33,-23.92]]],[[[-45.71,-23.79],[-45.71,-23.79]]],[[[-45.28,-23.85],[-45.28,-23.85]]],[[[-45.3,-23.92],[-45.3,-23.92]]],[[[-45.16,-23.83],[-45.16,-23.83]]],[[[-45.67,-23.8],[-45.67,-23.8]]]]},"properties":{"name":"São Paulo","sigla":"SP"}},{"type":"Feature","geometry":{"type":"MultiPolygon","coordinates":[[[[-47.03,-8.98],[-47.07,-9.06],[-46.91,-9.08],[-46.77,-9.4],[-46.56,-9.48],[-46.65,-9.73],[-46.49,-9.83],[-46.37,-10.17],[-45.79,-10.27],[-45.7,-10.17],[-45.83,-10.44],[-46.21,-10.65],[-46.28,-10.91],[-46.62,-11.29],[-46.48,-11.52],[-46.08,-11.64],[-46.31,-11.63],[-46.37,-11.88],[-46.17,-11.91],[-46.4,-12.03],[-46.38,-12.29],[-46.25,-12.49],[-46.15,-12.48],[-46.28,-12.58],[-46.3,-12.95],[-46.11,-12.92],[-46.36,-12.99],[-46.42,-12.82],[-46.45,-12.97],[-46.75,-12.97],[-47.43,-13.29],[-47.63,-13.1],[-47.68,-13.47],[-47.82,-13.31],[-48.06,-13.23],[-48.16,-13.31],[-48.15,-13.15],[-48.44,-13.29],[-48.51,-13.13],[-48.59,-13.32],[-48.6,-13.06],[-48.86,-12.8],[-48.98,-12.96],[-49.12,-12.79],[-49.24,-12.88],[-49.37,-13.27],[-50.31,-12.82],[-50.14,-12.4],[-50.37,-12.55],[-50.51,-12.86],[-50.62,-12.82],[-50.71,-12.61],[-50.62,-12.42],[-50.69,-12.2],[-50.64,-11.88],[-50.72,-11.74],[-50.66,-11.59],[-50.74,-11.44],[-50.61,-11.07],[-50.6,-10.66],[-50.15,-9.7],[-50.04,-9.29],[-49.74,-8.9],[-49.59,-8.84],[-49.28,-8.38],[-49.15,-7.8],[-49.34,-7.66],[-49.38,-7.5],[-49.18,-7.21],[-49.21,-6.92],[-48.66,-6.66],[-48.65,-6.51],[-48.5,-6.35],[-48.38,-6.38],[-48.44,-6.19],[-48.3,-6.12],[-48.34,-6.02],[-48.23,-5.95],[-48.29,-5.74],[-48.13,-5.62],[-48.38,-5.39],[-48.51,-5.43],[-48.76,-5.35],[-48.61,-5.34],[-48.52,-5.19],[-48.35,-5.17],[-48.08,-5.28],[-47.93,-5.24],[-47.83,-5.39],[-47.51,-5.51],[-47.38,-6.27],[-47.53,-6.99],[-47.75,-7.2],[-47.65,-7.3],[-47.5,-7.29],[-47.48,-7.37],[-47.59,-7.44],[-47.5,-7.44],[-47.04,-8.05],[-46.67,-7.9],[-46.48,-8.0],[-46.52,-8.29],[-46.79,-8.37],[-46.92,-8.6],[-46.91,-8.85],[-47.03,-8.98]]]]},"properties":{"name":"Tocantins","sigla":"TO"}},{"type":"Feature","geometry":{"type":"MultiPolygon","coordinates":[[[[-47.31,-16.04],[-48.28,-16.05],[-48.2,-15.5],[-47.42,-15.5],[-47.31,-15.59],[-47.38,-15.88],[-47.31,-16.04]]]]},"properties":{"name":"Distrito Federal","sigla":"DF"}}]}